0 NIMBUS 2 DEB
1 28206U 66040U   13281.85772165  .00000811  00000-0  16122-2 0  2043
2 28206 100.3737 333.5736 0049066 327.2996 032.5020 13.38082218469999
0 NIMBUS 2 DEB
1 28206U 66040U   13285.67100323  .00000811  00000-0  16122-2 0  2059
2 28206 100.3729 337.4564 0048825 318.2873 041.4877 13.38090991470503
0 NIMBUS 2 DEB
1 28206U 66040U   13287.71444565  .00001254  00000-0  24439-2 0  2068
2 28206 100.3749 339.5470 0049452 313.1907 165.2890 13.38098653470775
0 NIMBUS 2 DEB
1 28206U 66040U   13288.82261222  .00001339  00000-0  26029-2 0  2070
2 28206 100.3745 340.6764 0049478 310.5191 103.5471 13.38101958470924
0 NIMBUS 2 DEB
1 28206U 66040U   13289.87483470  .00001299  00000-0  25285-2 0  2086
2 28206 100.3742 341.7489 0049509 307.9641 132.3389 13.38105238471061
0 NIMBUS 2 DEB
1 28206U 66040U   13291.81512839  .00001345  00000-0  26152-2 0  2092
2 28206 100.3740 343.7267 0049582 303.2563 119.2004 13.38110773471325
0 NIMBUS 2 DEB
1 28206U 66040U   13292.85968853  .00001432  00000-0  27772-2 0  2106
2 28206 100.3739 344.7913 0049603 300.7509 111.0854 13.38113861471467
0 NIMBUS 2 DEB
1 28206U 66040U   13294.13167595  .00001413  00000-0  27420-2 0  2113
2 28206 100.3738 346.0878 0049639 297.6950 118.5576 13.38117889471630
0 NIMBUS 2 DEB
1 28206U 66040U   13295.71557071  .00001499  00000-0  29035-2 0  2129
2 28206 100.3738 347.7022 0049701 293.8846 188.5949 13.38122612471845
